{"type": "FeatureCollection", "features": [ {"type": "Feature", "properties": {"norad_id": 28659, "name": "DIRECTV 8", "group": "intelsat", "lat": 0.03430244593514754, "lon": 59.27763669383282, "alt_km": 35795.621362394806, "timestamp": "2025-12-22T05:49:03.150142+00:00", "meta": {"OBJECT_NAME": "DIRECTV 8", "OBJECT_ID": "2005-019A", "EPOCH": "2025-12-21T17:45:51.515712", "MEAN_MOTION": 1.00270129, "ECCENTRICITY": 0.0002933, "INCLINATION": 0.0248, "RA_OF_ASC_NODE": 22.4105, "ARG_OF_PERICENTER": 259.858, "MEAN_ANOMALY": 315.7031, "EPHEMERIS_TYPE": 0, "CLASSIFICATION_TYPE": "U", "NORAD_CAT_ID": 28659, "ELEMENT_SET_NO": 999, "REV_AT_EPOCH": 7529, "BSTAR": 0, "MEAN_MOTION_DOT": 0, "MEAN_MOTION_DDOT": 0}, "tle": {"line1": "1 28659U 05019A   25355.74017958  .00000000  00000+0  00000+0 0  9994", "line2": "2 28659   0.0248  22.4105 0002933 259.8580 315.7031  1.00270129 75299"}}, "geometry": {"type": "Point", "coordinates": [59.27763669383282, 0.03430244593514754]}}, {"type": "Feature", "properties": {"norad_id": 28702, "name": "GALAXY 28 (G-28)", "group": "intelsat", "lat": 0.44311209370553567, "lon": 89.61150693737818, "alt_km": 35798.74810202846, "timestamp": "2025-12-22T05:49:03.150154+00:00", "meta": {"OBJECT_NAME": "GALAXY 28 (G-28)", "OBJECT_ID": "2005-022A", "EPOCH": "2025-12-20T00:49:30.482112", "MEAN_MOTION": 1.00271047, "ECCENTRICITY": 0.00029384, "INCLINATION": 2.8382, "RA_OF_ASC_NODE": 81.1982, "ARG_OF_PERICENTER": 194.0723, "MEAN_ANOMALY": 97.2981, "EPHEMERIS_TYPE": 0, "CLASSIFICATION_TYPE": "U", "NORAD_CAT_ID": 28702, "ELEMENT_SET_NO": 999, "REV_AT_EPOCH": 5017, "BSTAR": 0, "MEAN_MOTION_DOT": -1.65e-06, "MEAN_MOTION_DDOT": 0}, "tle": {"line1": "1 28702U 05022A   25354.03438058 -.00000165  00000+0  00000+0 0  9999", "line2": "2 28702   2.8382  81.1982 0002938 194.0723  97.2981  1.00271047 50172"}}, "geometry": {"type": "Point", "coordinates": [89.61150693737818, 0.44311209370553567]}}, {"type": "Feature", "properties": {"norad_id": 29236, "name": "GALAXY 16 (G-16)", "group": "intelsat", "lat": -0.00992281208465259, "lon": 79.30383480928649, "alt_km": 35796.590323029974, "timestamp": "2025-12-22T05:49:03.150166+00:00", "meta": {"OBJECT_NAME": "GALAXY 16 (G-16)", "OBJECT_ID": "2006-023A", "EPOCH": "2025-12-21T16:09:00.789120", "MEAN_MOTION": 1.00270904, "ECCENTRICITY": 0.0002487, "INCLINATION": 0.0149, "RA_OF_ASC_NODE": 168.3011, "ARG_OF_PERICENTER": 104.604, "MEAN_ANOMALY": 320.8302, "EPHEMERIS_TYPE": 0, "CLASSIFICATION_TYPE": "U", "NORAD_CAT_ID": 29236, "ELEMENT_SET_NO": 999, "REV_AT_EPOCH": 7119, "BSTAR": 0, "MEAN_MOTION_DOT": -1.04e-06, "MEAN_MOTION_DDOT": 0}, "tle": {"line1": "1 29236U 06023A   25355.67292580 -.00000104  00000+0  00000+0 0  9996", "line2": "2 29236   0.0149 168.3011 0002487 104.6040 320.8302  1.00270904 71193"}}, "geometry": {"type": "Point", "coordinates": [79.30383480928649, -0.00992281208465259]}}, {"type": "Feature", "properties": {"norad_id": 29494, "name": "DIRECTV 9S", "group": "intelsat", "lat": -0.18124377164478345, "lon": 77.1100951941935, "alt_km": 35797.595505656805, "timestamp": "2025-12-22T05:49:03.150178+00:00", "meta": {"OBJECT_NAME": "DIRECTV 9S", "OBJECT_ID": "2006-043A", "EPOCH": "2025-12-21T14:25:40.685376", "MEAN_MOTION": 1.00271497, "ECCENTRICITY": 0.0002852, "INCLINATION": 1.9616, "RA_OF_ASC_NODE": 83.1199, "ARG_OF_PERICENTER": 193.4802, "MEAN_ANOMALY": 289.0265, "EPHEMERIS_TYPE": 0, "CLASSIFICATION_TYPE": "U", "NORAD_CAT_ID": 29494, "ELEMENT_SET_NO": 999, "REV_AT_EPOCH": 4960, "BSTAR": 0, "MEAN_MOTION_DOT": -9.2e-07, "MEAN_MOTION_DDOT": 0}, "tle": {"line1": "1 29494U 06043A   25355.60116534 -.00000092  00000+0  00000+0 0  9997", "line2": "2 29494   1.9616  83.1199 0002852 193.4802 289.0265  1.00271497 49600"}}, "geometry": {"type": "Point", "coordinates": [77.1100951941935, -0.18124377164478345]}}, {"type": "Feature", "properties": {"norad_id": 31307, "name": "GALAXY 17 (G-17)", "group": "intelsat", "lat": 0.5123212352958573, "lon": 93.29574758953216, "alt_km": 35807.718835739484, "timestamp": "2025-12-22T05:49:03.150191+00:00", "meta": {"OBJECT_NAME": "GALAXY 17 (G-17)", "OBJECT_ID": "2007-016B", "EPOCH": "2025-12-21T14:30:17.743392", "MEAN_MOTION": 1.00270105, "ECCENTRICITY": 0.0005345, "INCLINATION": 2.5208, "RA_OF_ASC_NODE": 82.1857, "ARG_OF_PERICENTER": 170.3657, "MEAN_ANOMALY": 330.468, "EPHEMERIS_TYPE": 0, "CLASSIFICATION_TYPE": "U", "NORAD_CAT_ID": 31307, "ELEMENT_SET_NO": 999, "REV_AT_EPOCH": 6802, "BSTAR": 0, "MEAN_MOTION_DOT": -1.85e-06, "MEAN_MOTION_DDOT": 0}, "tle": {"line1": "1 31307U 07016B   25355.60437203 -.00000185  00000+0  00000+0 0  9996", "line2": "2 31307   2.5208  82.1857 0005345 170.3657 330.4680  1.00270105 68026"}}, "geometry": {"type": "Point", "coordinates": [93.29574758953216, 0.5123212352958573]}}, {"type": "Feature", "properties": {"norad_id": 31862, "name": "DIRECTV 10", "group": "intelsat", "lat": 0.005298944247162491, "lon": 75.50600962810218, "alt_km": 35786.502750389984, "timestamp": "2025-12-22T05:49:03.150205+00:00", "meta": {"OBJECT_NAME": "DIRECTV 10", "OBJECT_ID": "2007-032A", "EPOCH": "2025-12-21T16:08:00.885408", "MEAN_MOTION": 1.00272363, "ECCENTRICITY": 2.03e-05, "INCLINATION": 0.0084, "RA_OF_ASC_NODE": 101.8858, "ARG_OF_PERICENTER": 105.8192, "MEAN_ANOMALY": 21.9876, "EPHEMERIS_TYPE": 0, "CLASSIFICATION_TYPE": "U", "NORAD_CAT_ID": 31862, "ELEMENT_SET_NO": 999, "REV_AT_EPOCH": 4381, "BSTAR": 0, "MEAN_MOTION_DOT": -8.1e-07, "MEAN_MOTION_DDOT": 0}, "tle": {"line1": "1 31862U 07032A   25355.67223247 -.00000081  00000+0  00000+0 0  9993", "line2": "2 31862   0.0084 101.8858 0000203 105.8192  21.9876  1.00272363 43819"}}, "geometry": {"type": "Point", "coordinates": [75.50600962810218, 0.005298944247162491]}}, {"type": "Feature", "properties": {"norad_id": 32253, "name": "INTELSAT 11 (IS-11)", "group": "intelsat", "lat": -3.0457055573449674, "lon": 2.322942986167456, "alt_km": 36145.203674332624, "timestamp": "2025-12-22T05:49:03.150217+00:00", "meta": {"OBJECT_NAME": "INTELSAT 11 (IS-11)", "OBJECT_ID": "2007-044B", "EPOCH": "2025-12-21T17:30:22.998240", "MEAN_MOTION": 0.99052572, "ECCENTRICITY": 0.0008538, "INCLINATION": 3.1021, "RA_OF_ASC_NODE": 80.8774, "ARG_OF_PERICENTER": 169.4632, "MEAN_ANOMALY": 288.9565, "EPHEMERIS_TYPE": 0, "CLASSIFICATION_TYPE": "U", "NORAD_CAT_ID": 32253, "ELEMENT_SET_NO": 999, "REV_AT_EPOCH": 6669, "BSTAR": 0, "MEAN_MOTION_DOT": -9.7e-07, "MEAN_MOTION_DDOT": 0}, "tle": {"line1": "1 32253U 07044B   25355.72943285 -.00000097  00000+0  00000+0 0  9995", "line2": "2 32253   3.1021  80.8774 0008538 169.4632 288.9565  0.99052572 66692"}}, "geometry": {"type": "Point", "coordinates": [2.322942986167456, -3.0457055573449674]}}, {"type": "Feature", "properties": {"norad_id": 32388, "name": "HORIZONS-2", "group": "intelsat", "lat": 0.8171338477186294, "lon": 104.5019816356519, "alt_km": 35805.591010086944, "timestamp": "2025-12-22T05:49:03.150229+00:00", "meta": {"OBJECT_NAME": "HORIZONS-2", "OBJECT_ID": "2007-063B", "EPOCH": "2025-12-21T13:04:20.930016", "MEAN_MOTION": 1.00271247, "ECCENTRICITY": 0.0004613, "INCLINATION": 2.1431, "RA_OF_ASC_NODE": 82.8666, "ARG_OF_PERICENTER": 194.5159, "MEAN_ANOMALY": 295.2836, "EPHEMERIS_TYPE": 0, "CLASSIFICATION_TYPE": "U", "NORAD_CAT_ID": 32388, "ELEMENT_SET_NO": 999, "REV_AT_EPOCH": 6603, "BSTAR": 0, "MEAN_MOTION_DOT": -2.32e-06, "MEAN_MOTION_DDOT": 0}, "tle": {"line1": "1 32388U 07063B   25355.54468669 -.00000232  00000+0  00000+0 0  9994", "line2": "2 32388   2.1431  82.8666 0004613 194.5159 295.2836  1.00271247 66035"}}, "geometry": {"type": "Point", "coordinates": [104.5019816356519, 0.8171338477186294]}}, {"type": "Feature", "properties": {"norad_id": 32729, "name": "DIRECTV 11", "group": "intelsat", "lat": 0.018363951850682642, "lon": 79.09431168660106, "alt_km": 35787.42367964256, "timestamp": "2025-12-22T05:49:03.150241+00:00", "meta": {"OBJECT_NAME": "DIRECTV 11", "OBJECT_ID": "2008-013A", "EPOCH": "2025-12-21T16:09:00.789120", "MEAN_MOTION": 1.00267418, "ECCENTRICITY": 8.57e-05, "INCLINATION": 0.0458, "RA_OF_ASC_NODE": 200.3144, "ARG_OF_PERICENTER": 330.5483, "MEAN_ANOMALY": 62.6867, "EPHEMERIS_TYPE": 0, "CLASSIFICATION_TYPE": "U", "NORAD_CAT_ID": 32729, "ELEMENT_SET_NO": 999, "REV_AT_EPOCH": 4381, "BSTAR": 0, "MEAN_MOTION_DOT": -1.03e-06, "MEAN_MOTION_DDOT": 0}, "tle": {"line1": "1 32729U 08013A   25355.67292580 -.00000103  00000+0  00000+0 0  9997", "line2": "2 32729   0.0458 200.3144 0000857 330.5483  62.6867  1.00267418 43812"}}, "geometry": {"type": "Point", "coordinates": [79.09431168660106, 0.018363951850682642]}}, {"type": "Feature", "properties": {"norad_id": 32951, "name": "GALAXY 18 (G-18)", "group": "intelsat", "lat": 0.010732315914171052, "lon": 55.314413914802486, "alt_km": 35795.39158717938, "timestamp": "2025-12-22T05:49:03.150253+00:00", "meta": {"OBJECT_NAME": "GALAXY 18 (G-18)", "OBJECT_ID": "2008-024A", "EPOCH": "2025-12-21T08:40:28.062624", "MEAN_MOTION": 1.00271198, "ECCENTRICITY": 0.00028473, "INCLINATION": 0.0183, "RA_OF_ASC_NODE": 61.6385, "ARG_OF_PERICENTER": 214.0045, "MEAN_ANOMALY": 181.6446, "EPHEMERIS_TYPE": 0, "CLASSIFICATION_TYPE": "U", "NORAD_CAT_ID": 32951, "ELEMENT_SET_NO": 999, "REV_AT_EPOCH": 4407, "BSTAR": 0, "MEAN_MOTION_DOT": 4.8e-07, "MEAN_MOTION_DDOT": 0}, "tle": {"line1": "1 32951U 08024A   25355.36143591  .00000048  00000+0  00000+0 0  9996", "line2": "2 32951   0.0183  61.6385 0002847 214.0045 181.6446  1.00271198 44074"}}, "geometry": {"type": "Point", "coordinates": [55.314413914802486, 0.010732315914171052]}}]}